[{"OBJECT_NAME":"STARLINK-5146","OBJECT_ID":"2022-136Y","EPOCH":"2026-03-09T22:03:12.423456","MEAN_MOTION":15.08834525,"ECCENTRICITY":0.00013963,"INCLINATION":53.2197,"RA_OF_ASC_NODE":337.7528,"ARG_OF_PERICENTER":92.1281,"MEAN_ANOMALY":267.9871,"EPHEMERIS_TYPE":0,"CLASSIFICATION_TYPE":"U","NORAD_CAT_ID":54073,"ELEMENT_SET_NO":999,"REV_AT_EPOCH":18695,"BSTAR":-4.1991979e-5,"MEAN_MOTION_DOT":-9.56e-6,"MEAN_MOTION_DDOT":0},{"OBJECT_NAME":"CZ-6A DEB","OBJECT_ID":"2024-140QV","EPOCH":"2026-03-09T14:50:36.844800","MEAN_MOTION":14.79717429,"ECCENTRICITY":0.0126492,"INCLINATION":89.1682,"RA_OF_ASC_NODE":293.0345,"ARG_OF_PERICENTER":169.4874,"MEAN_ANOMALY":190.9042,"EPHEMERIS_TYPE":0,"CLASSIFICATION_TYPE":"U","NORAD_CAT_ID":61151,"ELEMENT_SET_NO":999,"REV_AT_EPOCH":8312,"BSTAR":0.0011388,"MEAN_MOTION_DOT":9.83e-5,"MEAN_MOTION_DDOT":0}]
